NORAD_CAT_ID,OBJECT_NAME,OBJECT_TYPE,EPOCH,MEAN_MOTION,ECCENTRICITY,INCLINATION,RA_OF_ASC_NODE,ARG_OF_PERICENTER,MEAN_ANOMALY,BSTAR,MEAN_MOTION_DOT,MEAN_MOTION_DDOT,TLE_LINE0,TLE_LINE1,TLE_LINE2,SEMIMAJOR_AXIS,PERIOD,APOGEE,PERIGEE,DECAYED
49770.0,STARLINK-3191,PAYLOAD,2022-01-10 22:00:00,15.40426442,0.00026,53.2152,133.7039,18.1799,165.3156,-9.5785e-05,-4.336e-05,0.0,0 STARLINK-3191,1 49770U 21115AY  22010.91667824 -.00004336  00000-0 -95785-4 0  9991,2 49770  53.2152 133.7039 0002600  18.1799 165.3156 15.40426442  7260,6822.986999999999,93.481,446.626,443.078,0.0
49770.0,STARLINK-3191,PAYLOAD,2022-01-11 14:00:01,15.40472222,0.0002658,53.2157,130.5629,19.7924,262.8187,-0.00095438,-0.00039467,0.0,0 STARLINK-3191,1 49770U 21115AY  22011.58334491 -.00039467  00000-0 -95438-3 0  9993,2 49770  53.2157 130.5629 0002658  19.7924 262.8187 15.40472222  7371,6822.852,93.478,446.53,442.903,0.0
49770.0,STARLINK-3191,PAYLOAD,2022-01-11 22:00:00,15.40472456,0.0002697,53.2158,128.9922,16.5659,315.6224,-0.00065402,-0.00027216,0.0,0 STARLINK-3191,1 49770U 21115AY  22011.91667824 -.00027216  00000-0 -65402-3 0  9996,2 49770  53.2158 128.9922 0002697  16.5659 315.6224 15.40472456  3624,6822.851,93.478,446.556,442.876,0.0
49770.0,STARLINK-3191,PAYLOAD,2022-01-12 06:00:00,15.40441848,0.0002555,53.216,127.42,19.371,2.4162,0.00051707,0.00020905,0.0,0 STARLINK-3191,1 49770U 21115AY  22012.25001157  .00020905  00000-0  51707-3 0  9994,2 49770  53.2160 127.4200 0002555  19.3710   2.4162 15.40441848  7472,6822.941,93.48,446.55,443.06300000000016,0.0
49770.0,STARLINK-3191,PAYLOAD,2022-01-12 14:00:01,15.40442044,0.0002831,53.2163,125.8513,19.9812,51.3853,0.00019091,7.45e-05,0.0,0 STARLINK-3191,1 49770U 21115AY  22012.58334491  .00007450  00000-0  19091-3 0  9990,2 49770  53.2163 125.8513 0002831  19.9812  51.3853 15.40442044  3655,6822.941,93.48,446.737,442.874,0.0
49770.0,STARLINK-3191,PAYLOAD,2022-01-12 22:00:00,15.40477691,0.000287,53.2161,124.2804,18.3085,102.6186,-0.001247,-0.00051376,0.0,0 STARLINK-3191,1 49770U 21115AY  22012.91667824 -.00051376  00000-0 -12470-2 0  9997,2 49770  53.2161 124.2804 0002870  18.3085 102.6186 15.40477691  7577,6822.835,93.477,446.659,442.742,0.0
49770.0,STARLINK-3191,PAYLOAD,2022-01-13 14:00:01,15.40440368,0.0003034,53.2162,121.1399,21.6012,198.5046,0.00052499,0.00021232,0.0,0 STARLINK-3191,1 49770U 21115AY  22013.58334491  .00021232  00000-0  52499-3 0  9994,2 49770  53.2162 121.1399 0003034  21.6012 198.5046 15.40440368  7674,6822.946,93.48,446.881,442.741,0.0
49770.0,STARLINK-3191,PAYLOAD,2022-01-13 22:00:00,15.404958,0.0002977,53.2158,119.5689,20.5543,249.1245,-0.0014135,-0.00058166,0.0,0 STARLINK-3191,1 49770U 21115AY  22013.91667824 -.00058166  00000-0 -14135-2 0  9992,2 49770  53.2158 119.5689 0002977  20.5543 249.1245 15.40495800  3619,6822.781999999997,93.476,446.67800000000005,442.616,0.0
49770.0,STARLINK-3191,PAYLOAD,2022-01-14 14:00:01,15.40473778,0.0003009,53.216,116.4287,18.9121,349.9712,-0.00061107,-0.00025464,0.0,0 STARLINK-3191,1 49770U 21115AY  22014.58334491 -.00025464  00000-0 -61107-3 0  9994,2 49770  53.2160 116.4287 0003009  18.9121 349.9712 15.40473778  3643,6822.847,93.478,446.765,442.659,0.0
49770.0,STARLINK-3191,PAYLOAD,2022-01-14 22:00:00,15.40481915,0.0002945,53.2157,114.8576,17.03,41.4458,-0.00077612,-0.00032212,0.0,0 STARLINK-3191,1 49770U 21115AY  22014.91667824 -.00032212  00000-0 -77612-3 0  9997,2 49770  53.2157 114.8576 0002945  17.0300  41.4458 15.40481915  7882,6822.823,93.477,446.697,442.679,0.0
49770.0,STARLINK-3191,PAYLOAD,2022-01-15 14:00:01,15.40512451,0.0003085,53.216,111.7173,18.1085,139.7018,0.000801,0.00032736,0.0,0 STARLINK-3191,1 49770U 21115AY  22015.58335648  .00032736  00000-0  80100-3 0  9992,2 49770  53.2160 111.7173 0003085  18.1085 139.7018 15.40512451  7987,6822.733,93.475,446.703,442.49300000000005,0.0
49770.0,STARLINK-3191,PAYLOAD,2022-01-15 22:00:01,15.40557398,0.0003003,53.216,110.1458,16.5345,190.9436,-0.00077296,-0.00032163,0.0,0 STARLINK-3191,1 49770U 21115AY  22015.91668981 -.00032163  00000-0 -77296-3 0  9996,2 49770  53.2160 110.1458 0003003  16.5345 190.9436 15.40557398  3648,6822.6,93.473,446.514,442.416,0.0
49770.0,STARLINK-3191,PAYLOAD,2022-01-16 06:00:00,15.40539656,0.000284,53.2163,108.5741,18.6836,238.3804,-0.0014348,-0.00059114,0.0,0 STARLINK-3191,1 49770U 21115AY  22016.25001157 -.00059114  00000-0 -14348-2 0  9993,2 49770  53.2163 108.5741 0002840  18.6836 238.3804 15.40539656  8089,6822.653,93.474,446.455,442.58,0.0
49770.0,STARLINK-3191,PAYLOAD,2022-01-16 14:00:01,15.40518707,0.0003063,53.2165,107.0056,14.9942,291.7599,-0.0051625,-0.00207485,0.0,0 STARLINK-3191,1 49770U 21115AY  22016.58334491 -.00207485  00000-0 -51625-2 0  9994,2 49770  53.2165 107.0056 0003063  14.9942 291.7599 15.40518707  3655,6822.714,93.475,446.669,442.49,0.0
49770.0,STARLINK-3191,PAYLOAD,2022-01-16 22:00:00,15.4033025,0.0002951,53.2166,105.4341,10.3976,345.9121,0.0017417,0.00071588,0.0,0 STARLINK-3191,1 49770U 21115AY  22016.91667824  .00071588  00000-0  17417-2 0  9992,2 49770  53.2166 105.4341 0002951  10.3976 345.9121 15.40330250  3644,6823.271,93.486,447.149,443.122,0.0
49770.0,STARLINK-3191,PAYLOAD,2022-01-17 00:00:00,15.40332333,0.0002832,53.2168,105.0411,10.6626,88.0147,0.0025261,0.00104467,0.0,0 STARLINK-3191,1 49770U 21115AY  22017.00001157  .00104467  00000-0  25261-2 0  9993,2 49770  53.2168 105.0411 0002832  10.6626  88.0147 15.40332333  8207,6823.265,93.486,447.062,443.197,0.0
49770.0,STARLINK-3191,PAYLOAD,2022-01-17 14:00:01,15.40389741,0.0003126,53.2171,102.2947,13.6941,81.6132,0.00023213,9.132e-05,0.0,0 STARLINK-3191,1 49770U 21115AY  22017.58334491  .00009132  00000-0  23213-3 0  9995,2 49770  53.2171 102.2947 0003126  13.6941  81.6132 15.40389741  8291,6823.095,93.483,447.093,442.827,0.0
49770.0,STARLINK-3191,PAYLOAD,2022-01-17 22:00:00,15.40400637,0.0003053,53.217,100.7232,12.7999,131.9872,0.00017563,6.811e-05,0.0,0 STARLINK-3191,1 49770U 21115AY  22017.91667824  .00006811  00000-0  17563-3 0  9993,2 49770  53.2170 100.7232 0003053  12.7999 131.9872 15.40400637  3633,6823.063,93.482,447.011,442.845,0.0
49770.0,STARLINK-3191,PAYLOAD,2022-01-18 06:00:00,15.40478391,0.0002967,53.2173,99.1521,17.8688,176.4936,0.00023222,9.163e-05,0.0,0 STARLINK-3191,1 49770U 21115AY  22018.25001157  .00009163  00000-0  23222-3 0  9994,2 49770  53.2173  99.1521 0002967  17.8688 176.4936 15.40478391  8397,6822.833000000001,93.477,446.723,442.674,0.0
49770.0,STARLINK-3191,PAYLOAD,2022-01-18 14:00:01,15.40463786,0.0003276999999999,53.2172,97.5834,14.46,229.5221,-3.4144000000000004e-05,-1.809e-05,0.0,0 STARLINK-3191,1 49770U 21115AY  22018.58334491 -.00001809  00000-0 -34144-4 0  9997,2 49770  53.2172  97.5834 0003277  14.4600 229.5221 15.40463786  3638,6822.877,93.478,446.977,442.506,0.0
49770.0,STARLINK-3191,PAYLOAD,2022-01-18 22:00:00,15.40482269,0.0003134,53.2169,96.0115,11.9995,281.5856,-0.00089319,-0.00036989,0.0,0 STARLINK-3191,1 49770U 21115AY  22018.91667824 -.00036989  00000-0 -89319-3 0  9993,2 49770  53.2169  96.0115 0003134  11.9995 281.5856 15.40482269  3630,6822.821999999999,93.477,446.825,442.549,0.0
49770.0,STARLINK-3191,PAYLOAD,2022-01-19 06:00:02,15.40464112,0.0003003999999999,53.2169,94.4406,11.9579,331.2641,-0.00027186,-0.0001157,0.0,0 STARLINK-3191,1 49770U 21115AY  22019.25002315 -.00011570  00000-0 -27186-3 0  9992,2 49770  53.2169  94.4406 0003004  11.9579 331.2641 15.40464112  8557,6822.876,93.478,446.79,442.691,0.0
49770.0,STARLINK-3191,PAYLOAD,2022-01-19 14:00:01,15.40458119,0.0003262,53.2165,92.8719,10.8494,21.9123,-0.000321,-0.00013582,0.0,0 STARLINK-3191,1 49770U 21115AY  22019.58334491 -.00013582  00000-0 -32100-3 0  9998,2 49770  53.2165  92.8719 0003262  10.8494  21.9123 15.40458119  3612,6822.893,93.479,446.984,442.533,0.0
49770.0,STARLINK-3191,PAYLOAD,2022-01-19 22:00:00,15.40435537,0.0003111,53.2161,91.2999,9.275,73.0712,0.00081354,0.00033171,0.0,0 STARLINK-3191,1 49770U 21115AY  22019.91667824  .00033171  00000-0  81354-3 0  9993,2 49770  53.2161  91.2999 0003111   9.2750  73.0712 15.40435537  3645,6822.96,93.48,446.948,442.702,0.0
49770.0,STARLINK-3191,PAYLOAD,2022-01-20 14:00:01,15.40459893,0.0003291,53.2158,88.1604,10.5669,170.8893,-0.0014137,-0.00058108,0.0,0 STARLINK-3191,1 49770U 21115AY  22020.58334491 -.00058108  00000-0 -14137-2 0  9992,2 49770  53.2158  88.1604 0003291  10.5669 170.8893 15.40459893  8756,6822.888000000001,93.479,446.99800000000016,442.508,0.0
49770.0,STARLINK-3191,PAYLOAD,2022-01-20 22:00:00,15.40397669,0.0003151,53.2156,86.5882,12.4703,218.557,-0.00046932,-0.00019617,0.0,0 STARLINK-3191,1 49770U 21115AY  22020.91667824 -.00019617  00000-0 -46932-3 0  9999,2 49770  53.2156  86.5882 0003151  12.4703 218.5570 15.40397669  3624,6823.071999999999,93.482,447.087,442.787,0.0
49770.0,STARLINK-3191,PAYLOAD,2022-01-21 14:00:01,15.40444273,0.0003312,53.2156,83.4489,11.6241,318.4253,0.00059062,0.00023949,0.0,0 STARLINK-3191,1 49770U 21115AY  22021.58334491  .00023949  00000-0  59062-3 0  9993,2 49770  53.2156  83.4489 0003312  11.6241 318.4253 15.40444273  8919,6822.934,93.48,447.059,442.539,0.0
49770.0,STARLINK-3191,PAYLOAD,2022-01-21 22:00:00,15.40443227,0.0003117,53.2157,81.8764,11.5326,8.1028,0.0006674,0.00027125,0.0,0 STARLINK-3191,1 49770U 21115AY  22021.91667824  .00027125  00000-0  66740-3 0  9990,2 49770  53.2157  81.8764 0003117  11.5326   8.1028 15.40443227  3640,6822.937,93.48,446.929,442.676,0.0
49770.0,STARLINK-3191,PAYLOAD,2022-01-22 14:00:01,15.40450984,0.0003382,53.216,78.7367,11.3081,107.546,0.0021362,0.00088446,0.0,0 STARLINK-3191,1 49770U 21115AY  22022.58334491  .00088446  00000-0  21362-2 0  9998,2 49770  53.2160  78.7367 0003382  11.3081 107.5460 15.40450984  3640,6822.9140000000025,93.479,447.087,442.472,0.0
